QIANFAN-41              
1 62242U 24232F   25291.21367841  .00000157  00000+0  22500-3 0  9994
2 62242  89.0026  46.7871 0013390 359.0593   1.0530 13.50978487 91759
QIANFAN-42              
1 62243U 24232G   25291.20684247  .00000807  00000+0  34246-3 0  9998
2 62243  89.0023  43.6863 0012914 264.0859  95.8861 14.24396538 93466
QIANFAN-43              
1 62244U 24232H   25291.20959336  .00000155  00000+0  22096-3 0  9999
2 62244  89.0031  46.8504 0015055   3.7713 356.3548 13.50979446 60362
QIANFAN-44              
1 62245U 24232J   25291.19718206  .00000155  00000+0  22190-3 0  9992
2 62245  89.0028  46.6633 0013201   1.6290 358.4902 13.50980711 91838
QIANFAN-45              
1 62246U 24232K   25291.16433567  .00000168  00000+0  24185-3 0  9994
2 62246  89.0032  46.8111 0013829   1.0386 359.0791 13.50977365 91758
QIANFAN-46              
1 62247U 24232L   25291.18899513  .00000160  00000+0  22948-3 0  9991
2 62247  89.0028  46.8799 0014088   6.5995 353.5339 13.50977985 91711
QIANFAN-47              
1 62248U 24232M   25291.19312188  .00000141  00000+0  19988-3 0  9990
2 62248  89.0024  46.8147 0014475   5.5004 354.6303 13.50979692 91748
QIANFAN-48              
1 62249U 24232N   25291.15616116  .00000156  00000+0  22378-3 0  9998
2 62249  89.0028  46.8181 0016792   7.3038 352.8355 13.50975683 91745
